[{"OBJECT_NAME":"GRUS-1C","OBJECT_ID":"2021-022B","EPOCH":"2026-03-09T22:02:59.067744","MEAN_MOTION":14.98740486,"ECCENTRICITY":0.00125084,"INCLINATION":97.5524,"RA_OF_ASC_NODE":315.2446,"ARG_OF_PERICENTER":300.8214,"MEAN_ANOMALY":59.1778,"EPHEMERIS_TYPE":0,"CLASSIFICATION_TYPE":"U","NORAD_CAT_ID":47933,"ELEMENT_SET_NO":999,"REV_AT_EPOCH":27103,"BSTAR":0.00015887452,"MEAN_MOTION_DOT":1.857e-5,"MEAN_MOTION_DDOT":0},{"OBJECT_NAME":"STARLINK-4402","OBJECT_ID":"2022-099AW","EPOCH":"2026-03-09T22:18:27.532512","MEAN_MOTION":15.01261175,"ECCENTRICITY":0.00033134,"INCLINATION":97.6025,"RA_OF_ASC_NODE":190.4528,"ARG_OF_PERICENTER":77.792,"MEAN_ANOMALY":282.3676,"EPHEMERIS_TYPE":0,"CLASSIFICATION_TYPE":"U","NORAD_CAT_ID":53509,"ELEMENT_SET_NO":999,"REV_AT_EPOCH":19602,"BSTAR":9.353915e-6,"MEAN_MOTION_DOT":6.2e-7,"MEAN_MOTION_DDOT":0}]
